[
  {
    "OBJECT_NAME": "STARLINK-35039",
    "OBJECT_ID": "2025-194T",
    "EPOCH": "2025-09-20T06:00:02.999808",
    "MEAN_MOTION": 15.58160184,
    "ECCENTRICITY": 0.00014993,
    "INCLINATION": 97.6036,
    "RA_OF_ASC_NODE": 115.0286,
    "ARG_OF_PERICENTER": 84.4283,
    "MEAN_ANOMALY": 288.267,
    "EPHEMERIS_TYPE": 0,
    "CLASSIFICATION_TYPE": "U",
    "NORAD_CAT_ID": 65451,
    "ELEMENT_SET_NO": 999,
    "REV_AT_EPOCH": 319,
    "BSTAR": -0.031044289,
    "MEAN_MOTION_DOT": -0.02044913,
    "MEAN_MOTION_DDOT": 0,
    "TLE": {
      "line1": "1 65451U 25194T   25263.25003472 -.02044913  00000+0 -31044-1 0  9990",
      "line2": "2 65451  97.6036 115.0286 0001499  84.4283 288.2670 15.58160184  3194"
    }
  },
  {
    "OBJECT_NAME": "STARLINK-4774",
    "OBJECT_ID": "2023-046AY",
    "EPOCH": "2025-09-19T17:09:28.135008",
    "MEAN_MOTION": 15.02531241,
    "ECCENTRICITY": 0.00019401,
    "INCLINATION": 43.0071,
    "RA_OF_ASC_NODE": 354.9385,
    "ARG_OF_PERICENTER": 278.1157,
    "MEAN_ANOMALY": 81.9466,
    "EPHEMERIS_TYPE": 0,
    "CLASSIFICATION_TYPE": "U",
    "NORAD_CAT_ID": 56138,
    "ELEMENT_SET_NO": 999,
    "REV_AT_EPOCH": 13649,
    "BSTAR": -1.8464172e-05,
    "MEAN_MOTION_DOT": -4.53e-06,
    "MEAN_MOTION_DDOT": 0,
    "TLE": {
      "line1": "1 56138U 23046AY  25262.71490897 -.00000453  00000+0 -18464-4 0  9990",
      "line2": "2 56138  43.0071 354.9385 0001940 278.1157  81.9466 15.02531241136493"
    }
  },
  {
    "OBJECT_NAME": "LAPAN-TUBSAT",
    "OBJECT_ID": "2007-001A",
    "EPOCH": "2025-09-20T06:14:41.654976",
    "MEAN_MOTION": 14.85473987,
    "ECCENTRICITY": 0.00120029,
    "INCLINATION": 98.1198,
    "RA_OF_ASC_NODE": 251.7281,
    "ARG_OF_PERICENTER": 351.5023,
    "MEAN_ANOMALY": 8.5986,
    "EPHEMERIS_TYPE": 0,
    "CLASSIFICATION_TYPE": "U",
    "NORAD_CAT_ID": 29709,
    "ELEMENT_SET_NO": 999,
    "REV_AT_EPOCH": 1107,
    "BSTAR": 9.4503053e-05,
    "MEAN_MOTION_DOT": 7.59e-06,
    "MEAN_MOTION_DDOT": 0,
    "TLE": {
      "line1": "1 29709U 07001A   25263.26020434  .00000759  00000+0  94503-4 0  9999",
      "line2": "2 29709  98.1198 251.7281 0012002 351.5023   8.5986 14.85473987 11076"
    }
  },
  {
    "OBJECT_NAME": "NAVSTAR 70 (USA 251)",
    "OBJECT_ID": "2014-026A",
    "EPOCH": "2025-09-18T05:40:25.074912",
    "MEAN_MOTION": 2.00567395,
    "ECCENTRICITY": 0.0036042,
    "INCLINATION": 56.6143,
    "RA_OF_ASC_NODE": 342.1033,
    "ARG_OF_PERICENTER": 317.0218,
    "MEAN_ANOMALY": 42.742,
    "EPHEMERIS_TYPE": 0,
    "CLASSIFICATION_TYPE": "U",
    "NORAD_CAT_ID": 39741,
    "ELEMENT_SET_NO": 999,
    "REV_AT_EPOCH": 8308,
    "BSTAR": 0,
    "MEAN_MOTION_DOT": -1.04e-06,
    "MEAN_MOTION_DDOT": 0,
    "TLE": {
      "line1": "1 39741U 14026A   25261.23640133 -.00000104  00000+0  00000+0 0  9999",
      "line2": "2 39741  56.6143 342.1033 0036042 317.0218  42.7420  2.00567395 83089"
    }
  },
  {
    "OBJECT_NAME": "STARLINK-31230",
    "OBJECT_ID": "2024-020Q",
    "EPOCH": "2025-09-20T02:22:59.685024",
    "MEAN_MOTION": 15.30193676,
    "ECCENTRICITY": 0.00011508,
    "INCLINATION": 53.1618,
    "RA_OF_ASC_NODE": 32.6439,
    "ARG_OF_PERICENTER": 80.904,
    "MEAN_ANOMALY": 279.2091,
    "EPHEMERIS_TYPE": 0,
    "CLASSIFICATION_TYPE": "U",
    "NORAD_CAT_ID": 58890,
    "ELEMENT_SET_NO": 999,
    "REV_AT_EPOCH": 9198,
    "BSTAR": 1.2822998e-05,
    "MEAN_MOTION_DOT": 2.1e-07,
    "MEAN_MOTION_DDOT": 0,
    "TLE": {
      "line1": "1 58890U 24020Q   25263.09930191  .00000021  00000+0  12823-4 0  9990",
      "line2": "2 58890  53.1618  32.6439 0001150  80.9040 279.2091 15.30193676 91989"
    }
  },
  {
    "OBJECT_NAME": "STARLINK-30186",
    "OBJECT_ID": "2023-107P",
    "EPOCH": "2025-09-20T02:18:42.998400",
    "MEAN_MOTION": 15.02536568,
    "ECCENTRICITY": 9.619e-05,
    "INCLINATION": 43.004,
    "RA_OF_ASC_NODE": 185.7602,
    "ARG_OF_PERICENTER": 280.1687,
    "MEAN_ANOMALY": 79.9047,
    "EPHEMERIS_TYPE": 0,
    "CLASSIFICATION_TYPE": "U",
    "NORAD_CAT_ID": 57470,
    "ELEMENT_SET_NO": 999,
    "REV_AT_EPOCH": 11945,
    "BSTAR": -1.2012927e-05,
    "MEAN_MOTION_DOT": -3.66e-06,
    "MEAN_MOTION_DDOT": 0,
    "TLE": {
      "line1": "1 57470U 23107P   25263.09633100 -.00000366  00000+0 -12013-4 0  9993",
      "line2": "2 57470  43.0040 185.7602 0000961 280.1687  79.9047 15.02536568119450"
    }
  },
  {
    "OBJECT_NAME": "STARLINK-3574",
    "OBJECT_ID": "2022-022Y",
    "EPOCH": "2025-09-19T17:04:20.217504",
    "MEAN_MOTION": 15.08840095,
    "ECCENTRICITY": 0.00013041,
    "INCLINATION": 53.2186,
    "RA_OF_ASC_NODE": 56.6748,
    "ARG_OF_PERICENTER": 95.4273,
    "MEAN_ANOMALY": 264.6868,
    "EPHEMERIS_TYPE": 0,
    "CLASSIFICATION_TYPE": "U",
    "NORAD_CAT_ID": 51874,
    "ELEMENT_SET_NO": 999,
    "REV_AT_EPOCH": 19729,
    "BSTAR": -8.112029e-05,
    "MEAN_MOTION_DOT": -1.579e-05,
    "MEAN_MOTION_DDOT": 0,
    "TLE": {
      "line1": "1 51874U 22022Y   25262.71134511 -.00001579  00000+0 -81120-4 0  9992",
      "line2": "2 51874  53.2186  56.6748 0001304  95.4273 264.6868 15.08840095197294"
    }
  },
  {
    "OBJECT_NAME": "2023-085AL",
    "OBJECT_ID": "2023-085AL",
    "EPOCH": "2025-09-20T03:03:01.596384",
    "MEAN_MOTION": 15.24859313,
    "ECCENTRICITY": 0.00072508,
    "INCLINATION": 97.4836,
    "RA_OF_ASC_NODE": 8.3436,
    "ARG_OF_PERICENTER": 319.9242,
    "MEAN_ANOMALY": 40.146,
    "EPHEMERIS_TYPE": 0,
    "CLASSIFICATION_TYPE": "U",
    "NORAD_CAT_ID": 57038,
    "ELEMENT_SET_NO": 999,
    "REV_AT_EPOCH": 12545,
    "BSTAR": 0.00052623934,
    "MEAN_MOTION_DOT": 0.00013024,
    "MEAN_MOTION_DDOT": 0,
    "TLE": {
      "line1": "1 57038U 23085AL  25263.12710181  .00013024  00000+0  52624-3 0  9991",
      "line2": "2 57038  97.4836   8.3436 0007250 319.9242  40.1460 15.24859313125453"
    }
  },
  {
    "OBJECT_NAME": "QIANFAN-77",
    "OBJECT_ID": "2025-046E",
    "EPOCH": "2025-09-20T06:10:20.157600",
    "MEAN_MOTION": 13.96047101,
    "ECCENTRICITY": 0.00136653,
    "INCLINATION": 88.9833,
    "RA_OF_ASC_NODE": 327.4457,
    "ARG_OF_PERICENTER": 350.15,
    "MEAN_ANOMALY": 9.9406,
    "EPHEMERIS_TYPE": 0,
    "CLASSIFICATION_TYPE": "U",
    "NORAD_CAT_ID": 63163,
    "ELEMENT_SET_NO": 999,
    "REV_AT_EPOCH": 3680,
    "BSTAR": 0.00027322182,
    "MEAN_MOTION_DOT": 3.88e-06,
    "MEAN_MOTION_DDOT": 0,
    "TLE": {
      "line1": "1 63163U 25046E   25263.25717775  .00000388  00000+0  27322-3 0  9992",
      "line2": "2 63163  88.9833 327.4457 0013665 350.1500   9.9406 13.96047101 36804"
    }
  },
  {
    "OBJECT_NAME": "LYNK TOWER 6",
    "OBJECT_ID": "2024-043AB",
    "EPOCH": "2025-09-20T02:05:39.582816",
    "MEAN_MOTION": 15.26289734,
    "ECCENTRICITY": 0.00126679,
    "INCLINATION": 97.5258,
    "RA_OF_ASC_NODE": 31.545,
    "ARG_OF_PERICENTER": 117.2531,
    "MEAN_ANOMALY": 243,
    "EPHEMERIS_TYPE": 0,
    "CLASSIFICATION_TYPE": "U",
    "NORAD_CAT_ID": 59123,
    "ELEMENT_SET_NO": 999,
    "REV_AT_EPOCH": 8576,
    "BSTAR": 0.00023407467,
    "MEAN_MOTION_DOT": 6.009e-05,
    "MEAN_MOTION_DDOT": 0,
    "TLE": {
      "line1": "1 59123U 24043AB  25263.08726369  .00006009  00000+0  23407-3 0  9995",
      "line2": "2 59123  97.5258  31.5450 0012667 117.2531 243.0000 15.26289734 85760"
    }
  },
  {
    "OBJECT_NAME": "STARLINK-5387",
    "OBJECT_ID": "2022-177Y",
    "EPOCH": "2025-09-19T22:12:57.908736",
    "MEAN_MOTION": 15.02534343,
    "ECCENTRICITY": 0.00013607,
    "INCLINATION": 43.0043,
    "RA_OF_ASC_NODE": 340.7278,
    "ARG_OF_PERICENTER": 272.9,
    "MEAN_ANOMALY": 87.1687,
    "EPHEMERIS_TYPE": 0,
    "CLASSIFICATION_TYPE": "U",
    "NORAD_CAT_ID": 54842,
    "ELEMENT_SET_NO": 999,
    "REV_AT_EPOCH": 15127,
    "BSTAR": 2.250432e-06,
    "MEAN_MOTION_DOT": -1.73e-06,
    "MEAN_MOTION_DDOT": 0,
    "TLE": {
      "line1": "1 54842U 22177Y   25262.92567024 -.00000173  00000+0  22504-5 0  9993",
      "line2": "2 54842  43.0043 340.7278 0001360 272.9000  87.1687 15.02534343151273"
    }
  },
  {
    "OBJECT_NAME": "ONEWEB-0521",
    "OBJECT_ID": "2022-138AC",
    "EPOCH": "2025-09-19T19:12:28.648512",
    "MEAN_MOTION": 13.1972604,
    "ECCENTRICITY": 0.00019868,
    "INCLINATION": 87.9289,
    "RA_OF_ASC_NODE": 358.7068,
    "ARG_OF_PERICENTER": 93.3115,
    "MEAN_ANOMALY": 266.8245,
    "EPHEMERIS_TYPE": 0,
    "CLASSIFICATION_TYPE": "U",
    "NORAD_CAT_ID": 54139,
    "ELEMENT_SET_NO": 999,
    "REV_AT_EPOCH": 14110,
    "BSTAR": -7.2867659e-05,
    "MEAN_MOTION_DOT": -1.6e-07,
    "MEAN_MOTION_DDOT": 0,
    "TLE": {
      "line1": "1 54139U 22138AC  25262.80033158 -.00000016  00000+0 -72868-4 0  9996",
      "line2": "2 54139  87.9289 358.7068 0001986  93.3115 266.8245 13.19726040141103"
    }
  },
  {
    "OBJECT_NAME": "STARLINK-32824",
    "OBJECT_ID": "2025-018M",
    "EPOCH": "2025-09-20T00:54:55.416096",
    "MEAN_MOTION": 15.30200726,
    "ECCENTRICITY": 0.00011438,
    "INCLINATION": 53.1594,
    "RA_OF_ASC_NODE": 22.0537,
    "ARG_OF_PERICENTER": 85.0375,
    "MEAN_ANOMALY": 275.0756,
    "EPHEMERIS_TYPE": 0,
    "CLASSIFICATION_TYPE": "U",
    "NORAD_CAT_ID": 62817,
    "ELEMENT_SET_NO": 999,
    "REV_AT_EPOCH": 3799,
    "BSTAR": 0.00085426824,
    "MEAN_MOTION_DOT": 0.00025028,
    "MEAN_MOTION_DDOT": 0,
    "TLE": {
      "line1": "1 62817U 25018M   25263.03814139  .00025028  00000+0  85427-3 0  9992",
      "line2": "2 62817  53.1594  22.0537 0001143  85.0375 275.0756 15.30200726 37995"
    }
  }
]